CUBEBUG-2 (LO-74)
1 39440U 13066AA  26198.80728606  .00001941  00000-0  18256-3 0  9999
2 39440  97.8919 147.9224 0055605 286.5269  72.9846 14.93977366681560
FUNCUBE-1 (AO-73)
1 39444U 13066AE  26198.87735123  .00004433  00000-0  27372-3 0  9990
2 39444  97.8295 170.9747 0037944  98.9940 261.5586 15.09839207684293
UWE-3
1 39446U 13066AG  26198.82646848  .00002032  00000-0  17707-3 0  9996
2 39446  97.8719 155.1139 0047603 215.4548 144.3506 14.97209607682164
UNISAT-6
1 40012U 14033C   26198.85789839  .00001036  00000-0  11605-3 0  9997
2 40012  97.7913 351.0383 0043969 328.8309  31.0301 14.88372476650720
DUCHIFAT-1
1 40021U 14033M   26198.90862875  .00101790  00000-0  78804-3 0  9997
2 40021  98.0416 262.5554 0003093 233.4347 126.6630 15.71547527660568
LILACSAT-2
1 40908U 15049K   26198.96338841  .00011681  00000-0  19261-3 0  9997
2 40908  97.4621 236.9905 0008516 133.5114 226.6848 15.52422062600522
CAS-2T & KS-1Q
1 41847U 16066G   26198.92131616  .00000456  00000-0  72558-4 0  9994
2 41847  98.3813 274.3059 0342112  36.5009 325.8983 14.44773356509235
FOX-1B (AO-91)
1 43017U 17073E   26198.56599502  .00003831  00000-0  16851-3 0  9999
2 43017  97.4662  65.1618 0148332 223.2065 135.7454 15.13080744469987
FUNCUBE-3 (EO-79)/QB50P1
1 40025U 14033R   26198.85775342  .00004537  00000-0  22226-3 0  9995
2 40025  98.0967 212.1646 0010484 116.9790 243.2514 15.18689290657686
FOX-1A (AO-85)
1 40967U 15058D   26198.93725960  .00001644  00000-0  15531-3 0  9995
2 40967  64.7725 183.4108 0132584  44.7716 316.4004 14.91098155118153
DIWATA-2B (PO-101)
1 43678U 18084H   26198.97828904  .00000985  00000-0  83138-4 0  9991
2 43678  98.1211  36.5350 0012689  75.8524 284.4107 15.00569266420834
ESHAIL-2
1 43700U 18090A   26198.83933672  .00000135  00000-0  00000-0 0  9998
2 43700   0.0143  73.7605 0002330  84.7371 105.0912  1.00272480 27988
ITASAT-1
1 43786U 18099AE  26198.58277241  .00002956  00000-0  14271-3 0  9997
2 43786  97.4008 249.4921 0010995 240.9559 119.0575 15.19397594417527
FOX-1CLIFF (AO-95)
1 43770U 18099N   26198.41757722  .00005742  00000-0  21739-3 0  9992
2 43770  97.4364 258.5624 0007428 230.6707 129.3874 15.27300598417831
JY1SAT (JO-97)
1 43803U 18099AX  26198.62130861  .00009074  00000-0  27313-3 0  9997
2 43803  97.4108 261.5784 0007057 150.8964 209.2673 15.34566538418293
UWE-4
1 43880U 18111E   26198.74427190  .00018314  00000-0  35266-3 0  9997
2 43880  97.5840 128.5854 0006528 184.7413 175.3776 15.47920542415500
CAS-6 (TO-108)
1 44881U 19093C   26198.94072083  .00000060  00000-0  12763-4 0  9995
2 44881  97.7518 270.4211 0013355 352.3525   7.7486 14.86560636355980
DOSAAF-85 (RS-44)
1 44909U 19096E   26198.80831472  .00000022  00000-0  34888-4 0  9999
2 44909  82.5243 319.3583 0218488  72.9172 289.5735 12.79748909306265
SALSAT (TUBSAT 22)
1 46495U 20068K   26198.94923409  .00004039  00000-0  14103-3 0  9998
2 46495  97.8860 203.8975 0009519 182.9906 177.1278 15.30194622320068
CAMSAT XW-3 (CAS-9)
1 50466U 21131B   26198.94584565  .00000065  00000-0  33785-4 0  9992
2 50466  98.4990 291.1696 0004423  23.6117 336.5275 14.41382322239543
ROBUSTA 1F (MTCUBE-2)
1 53109U 22080E   26198.22212605 -.00000003  00000-0  00000+0 0  9999
2 53109  70.1407 287.8015 0009072 282.9900  76.9746  6.42583336 93997
UMKA-1 (RS40S)
1 57172U 23091G   26198.94874893  .00003038  00000-0  13937-3 0  9995
2 57172  97.5030 257.5314 0012759  20.2648 339.9091 15.21138331168682
CUBESX-HSE-3 (RS42S)
1 57178U 23091N   26198.94587663  .00007178  00000-0  23519-3 0  9993
2 57178  97.5071 264.9352 0009372 351.8929   8.2159 15.31923763169133
MONITOR-3 (RS58S)
1 57180U 23091Q   26198.90880599  .00005446  00000-0  19945-3 0  9990
2 57180  97.5062 262.5901 0010692 359.9834   0.1403 15.28402704168989
MONITOR-4 (RS57S)
1 57182U 23091S   26198.95161468  .00005463  00000-0  19952-3 0  9991
2 57182  97.5057 262.6061 0010710   0.1645 359.9596 15.28490418168997
MONITOR-2 (RS39S)
1 57184U 23091U   26198.94341055  .00002323  00000-0  11366-3 0  9997
2 57184  97.5052 257.0298 0011121  14.7826 345.3732 15.19168120168626
SVYATOBOR-1 (RS60S)
1 57187U 23091X   26198.92655391  .00004705  00000-0  17977-3 0  9999
2 57187  97.5070 262.9214 0008455 354.7722   5.3427 15.27088811169004
VIZARD-METEO (RS38S)
1 57189U 23091Z   26198.95163629  .00009332  00000-0  26064-3 0  9990
2 57189  97.5073 269.0719 0005438 327.9587  32.1326 15.36925915169412
UTMN-2 (RS27S)
1 57203U 23091AP  26198.94690874  .00007006  00000-0  22402-3 0  9991
2 57203  97.5068 266.6073 0006466 339.4894  20.6087 15.32740210169257
POLYTECH UNIVERSE-3 (RS46S)
1 57191U 23091AB  26198.90055021  .00002618  00000-0  12669-3 0  9990
2 57191  97.5028 256.4914 0015825  28.7575 331.4529 15.19380871168614
